C/2024 F2 (PANSTARRS),e,13.7437,138.9391,112.8893,9.946029,0.0314217,0.60109230,13.4492,09/30.0/2025,2000,g 11.0,4.0
# From MPEC 2024-UA9
P/2024 FG9 (Nanshan-Hahn),e,1.7312,253.0422,245.9377,3.257794,0.1676172,0.50996652,83.4001,09/30.0/2025,2000,g 14.0,4.0
# From MPC184412
C/2024 G1 (Wierzchos),e,95.3901,30.6055,128.2222,122.2533,0.0007291,0.96785310,0.2508,09/30.0/2025,2000,g 10.0,4.0
# From MPC186631
C/2024 G2 (ATLAS),e,122.1225,171.3983,328.7403,718.8597,0.0000511,0.99256007,0.0000,06/13.5497/2025,2000,g  7.0,4.0
# From MPC184412
C/2024 G3 (ATLAS),h,01/13.4237/2025,116.8474,220.3609,108.1387,1.000007,0.093595,2000,9.0,4.0
# From MPEC 2025-SH3
C/2024 G4 (PANSTARRS),e,33.0270,152.9775,131.4179,3192,0.0000055,0.99846481,0.0000,03/21.5678/2026,2000,g  8.0,4.0
# From MPEC 2024-JC6
C/2024 G5 (Leonard),e,50.3874,316.3890,209.5872,584.3723,0.0000698,0.99494646,0.0000,09/07.0818/2024,2000,g 13.0,4.0
# From MPEC 2025-ST8
C/2024 G6 (ATLAS),h,02/20.6643/2026,120.4541,250.9517,23.4315,1.002040,6.429955,2000,5.5,4.0
# From MPC184412
C/2024 G7 (ATLAS),h,02/10.0504/2025,131.5129,191.9670,289.6543,1.001881,6.027575,2000,7.0,4.0
# From MPEC 2024-Q05
A/2024 G8,e,97.4221,11.2506,249.1563,141.1382,0.0005878,0.99169269,0.0000,06/15.5724/2024,2000,g 20.0,2.0
# From MPEC 2024-JU4
P/2024 J1 (PANSTARRS),e,13.1600,321.9350,200.3685,3.808702,0.1325985,0.30779785,91.3114,09/30.0/2025,2000,g 14.5,4.0
# From MPEC 2025-ST8
C/2024 J2 (Wierzchos),e,79.2973,189.0597,143.1511,148.3476,0.0005455,0.98779129,0.0000,03/19.7674/2025,2000,g 11.5,4.0
# From MPEC 2025-ST8
C/2024 J3 (ATLAS),h,11/25.3669/2026,75.6416,285.9615,74.0887,1.000567,3.865331,2000,5.0,4.0
# From MPEC 2025-R69
C/2024 J4 (Lemmon),e,117.5267,19.3092,127.8566,6262,0.0000020,0.99909050,0.0000,04/25.9720/2025,2000,g  8.0,4.0
# From MPEC 2024-LB4
P/2024 K1 (PANSTARRS),e,1.7861,251.6863,351.9138,6.843950,0.0550483,0.49516030,28.0267,09/30.0/2025,2000,g 13.5,4.0
# From MPC186631
C/2024 L1 (PANSTARRS),e,99.1620,45.1393,171.7872,11.46495,0.0253890,0.53352979,4.0605,09/30.0/2025,2000,g 10.0,4.0
# From MPEC 2024-P23
C/2024 L2 (PANSTARRS),e,139.4873,266.2859,345.6066,474.6285,0.0000953,0.98245736,0.0000,06/12.6100/2025,2000,g  7.5,3.2
# From MPEC 2024-RQ6
C/2024 L3 (PANSTARRS),h,11/24.0138/2023,111.5916,294.9981,59.0706,1.003528,6.857776,2000,9.5,4.0
# From MPEC 2025-ST8
C/2024 L5 (ATLAS),h,03/10.3962/2025,166.5727,139.1782,290.5176,1.037007,3.432464,2000,9.0,4.0
# From MPEC 2025-ST8
C/2024 M1 (ATLAS),e,73.7094,76.2140,345.5864,29.77402,0.0060666,0.94279098,1.9050,09/30.0/2025,2000,g 12.0,4.0
# From MPEC 2025-R69
C/2024 N1 (PANSTARRS),h,10/18.8658/2025,88.7815,323.0238,91.2527,1.001113,4.398395,2000,10.5,4.0
# From MPEC 2025-ST8
C/2024 N3 (Sarneczky),h,04/11.4865/2025,88.7289,82.6090,86.8901,1.001650,5.014629,2000,8.0,4.0
# From MPEC 2025-ST8
C/2024 N4 (Sarneczky),h,01/10.3012/2025,49.7774,339.6538,116.7216,1.004260,5.398095,2000,7.5,4.0
# From MPEC 2024-PC5
C/2024 O1 (PANSTARRS),h,01/28.3280/2023,59.0811,303.3444,349.8724,1.000393,6.606106,2000,8.5,4.0
# From MPEC 2024-UA9
P/2024 O2 (PANSTARRS),e,28.9779,6.8065,310.7787,7.379815,0.0491627,0.49893889,25.9540,09/30.0/2025,2000,g 12.0,4.0
# From MPEC 2025-A40
P/2024 OC2 (PANSTARRS),e,7.6709,136.6135,258.5440,2.625521,0.2316759,0.77414258,82.4069,09/30.0/2025,2000,g 20.5,4.0
# From MPC186632
C/2024 PN7 (PANSTARRS),e,101.2071,358.5845,74.2727,67.16611,0.0017905,0.97730131,0.0000,12/06.4276/2024,2000,g 15.2,4.0
# From MPEC 2024-UQ8
P/2024 Q1 (PANSTARRS),e,5.0080,23.0586,284.6607,3.523924,0.1489925,0.53471708,70.3711,09/30.0/2025,2000,g 17.0,4.0
# From MPC185660
C/2024 Q3 (PANSTARRS),h,03/05.2149/2025,121.3771,337.2886,70.1277,1.001437,2.091566,2000,15.0,4.0
# From MPEC 2025-R69
C/2024 Q4 (PANSTARRS),e,3.3160,324.2665,133.0426,607.8817,0.0000658,0.99108472,0.0000,11/11.9753/2024,2000,g 10.0,4.0
# From MPEC 2024-TP3
P/2024 R1 (PANSTARRS),e,12.7308,84.9851,230.7953,3.458473,0.1532419,0.49307970,72.1743,09/30.0/2025,2000,g 18.0,4.0
# From MPC182883
P/2024 R2 (PANSTARRS),e,15.1175,192.9891,203.8886,3.148298,0.1764372,0.26871561,64.1261,09/30.0/2025,2000,g 15.5,4.0
# From MPEC 2024-YC7
P/2024 R3 (PANSTARRS),e,14.7077,33.1758,309.4439,3.202651,0.1719648,0.26758122,87.5649,09/30.0/2025,2000,g 15.0,4.0
# From MPEC 2025-ST8
C/2024 R4 (PANSTARRS),h,10/26.6680/2027,95.3684,345.9381,108.9978,1.002568,4.408879,2000,6.5,4.0
# From MPEC 2025-R69
C/2024 S1 (ATLAS),e,142.1388,347.9846,69.8314,86.40496,0.0012271,0.99990764,0.0000,10/28.4576/2024,2000,g 15.5,4.0
# From MPEC 2025-A40
P/2024 S2 (Rankin),e,7.5263,8.3352,49.1582,5.036826,0.0871904,0.59349170,33.0231,09/30.0/2025,2000,g 15.0,4.0
# From MPC182883
P/2024 T1 (Rankin),e,17.6201,279.7099,164.8673,6.598428,0.0581491,0.65338355,21.2024,09/30.0/2025,2000,g 14.5,4.0
# From MPC184413
P/2024 T2 (Rankin),e,12.9289,113.0604,343.8322,6.171518,0.0642859,0.68040039,19.0074,09/30.0/2025,2000,g 16.0,4.0
# From MPC186632
C/2024 T3 (PANSTARRS),e,53.4480,74.8311,336.8882,88.43450,0.0011851,0.95798017,0.2355,09/30.0/2025,2000,g 11.5,4.0
# From MPEC 2025-ST8
C/2024 T5 (ATLAS),h,05/06.1916/2027,52.3868,100.6801,352.4488,1.002283,3.840806,2000,5.5,4.0
# From MPEC 2025-SI6
C/2024 U1 (PANSTARRS),e,128.7551,270.2637,188.0907,480.2983,0.0000936,0.98992998,0.0000,06/30.4804/2024,2000,g 10.0,4.0
# From MPEC 2025-R69
A/2024 U2,h,01/15.1748/2026,120.6633,56.0697,29.8168,1.002822,8.179197,2000,12.1,2.0
# From MPC185660
C/2024 V1 (Borisov),e,54.6256,328.1943,168.6707,231.8056,0.0002793,0.98999801,0.0000,04/04.1156/2025,2000,g 14.8,4.0
# From MPEC 2024-YC7
C/2024 V2 (Sarneczky),e,95.9727,102.2006,13.7314,39.35438,0.0039922,0.96840865,1.3181,09/30.0/2025,2000,g 19.0,4.0
# From MPC182883
C/2024 W1 (PANSTARRS),e,83.2014,310.7256,256.7427,44.94168,0.0032714,0.94302025,0.6375,09/30.0/2025,2000,g 15.0,4.0
# From MPC182883
A/2024 W2,h,02/27.4138/2025,116.6116,241.9369,168.0051,1.002283,3.720761,2000,15.6,2.0
# From MPC182884
C/2024 X1 (Fazekas),e,6.4680,351.9471,124.3835,9.437103,0.0339974,0.59556942,1.9608,09/30.0/2025,2000,g 11.3,4.0
# From MPC185660
C/2024 X2 (ATLAS),e,109.2226,122.5219,315.7900,50.71300,0.0027291,0.92750703,0.2294,09/30.0/2025,2000,g  9.6,4.0
# From MPC185660
P/2024 X3 (PANSTARRS),e,2.9723,113.3636,352.9574,6.994357,0.0532822,0.62620410,20.7371,09/30.0/2025,2000,g 14.6,4.0
# From MPEC 2025-A40
C/2024 X4 (PANSTARRS),e,34.6675,258.9447,153.2988,10.07191,0.0308345,0.64209927,0.8647,09/30.0/2025,2000,g 12.6,4.0
# From MPC186632
C/2024 XK14 (Bok),e,109.2140,239.0898,243.4915,17.00938,0.0140498,0.87891201,1.8557,09/30.0/2025,2000,g 15.5,4.0
# From MPC182884
C/2024 Y1 (Masek),e,64.8117,112.5458,238.1072,62.78764,0.0019810,0.98692175,0.0000,11/26.9623/2024,2000,g 17.6,4.0
# From MPC182884
A/2025 A1,h,03/12.7670/2027,33.4414,101.3310,68.1375,1.004179,5.338824,2000,11.3,2.0
# From MPC184414
P/2025 A2 (PANSTARRS),e,20.7345,189.3185,278.0525,5.083557,0.0859909,0.32202164,30.8992,09/30.0/2025,2000,g 13.2,4.0
# From MPC184414
C/2025 A3 (Tsuchinshan),e,9.9762,322.4319,222.3172,10.19640,0.0302715,0.43193759,354.9710,09/30.0/2025,2000,g  9.0,4.0
# From MPC185660
C/2025 A4 (PANSTARRS),e,32.0250,69.9143,102.8024,11.05748,0.0268052,0.65414563,6.9638,09/30.0/2025,2000,g 12.4,4.0
# From MPEC 2025-ST8
C/2025 A6 (Lemmon),e,143.6636,108.0978,132.9697,121.3380,0.0007374,0.99563294,0.0000,11/08.5382/2025,2000,g 13.2,4.0
# From MPEC 2025-ST8
A/2025 A7,e,133.6533,348.8509,195.5761,4376,0.0000034,0.99934104,0.0000,03/28.1216/2025,2000,g 14.9,2.0
# From MPC182885
C/2025 B1 (PANSTARRS),h,06/26.7599/2025,39.6808,102.8416,23.5251,1.000278,3.530895,2000,12.0,4.0
# From MPEC 2025-R69
C/2025 B2 (Borisov),h,09/11.2353/2026,91.7446,84.8664,78.8221,1.001160,8.240139,2000,6.2,4.0
# From MPEC 2025-ST8
P/2025 C1 (ATLAS),e,7.5168,9.0996,186.8038,4.196165,0.1146635,0.34558593,26.9950,09/30.0/2025,2000,g 10.8,4.0
# From MPC185660
C/2025 D1 (Groeller),h,05/20.7186/2028,84.4577,312.9010,185.9111,1.002992,14.117825,2000,1.2,4.0
# From MPC182885
P/2025 D2 (PANSTARRS),e,5.3344,256.7334,314.0353,8.923830,0.0369724,0.17901297,318.1534,09/30.0/2025,2000,g  8.2,4.0
# From MPC186632
P/2025 D3 (PANSTARRS),e,9.6434,186.6355,294.4981,3.967493,0.1247182,0.25247560,53.7711,09/30.0/2025,2000,g 14.7,4.0
# From MPEC 2025-R69
P/2025 D4 (ATLAS),e,15.9399,233.1196,332.8882,8.906268,0.0370818,0.63454039,8.4440,09/30.0/2025,2000,g 13.2,4.0
# From MPC184415
C/2025 D5 (PANSTARRS),e,73.3806,0.7362,211.4940,3233,0.0000054,0.99937756,0.0000,05/13.2923/2025,2000,g 17.6,4.0
# From MPC184415
C/2025 D6 (ATLAS),e,145.7909,151.4873,285.4096,1553,0.0000161,0.99838784,0.0000,12/11.3891/2024,2000,g 13.2,4.0
# From MPC184415
C/2025 E1 (PANSTARRS),e,69.0627,344.5946,274.4211,1502,0.0000169,0.99733771,0.0000,09/23.7249/2026,2000,g  9.7,4.0
# From MPC185661
C/2025 F1 (ATLAS),e,109.2373,122.7055,334.2251,285.2828,0.0002045,0.99624962,0.0000,04/20.4680/2025,2000,g 18.0,4.0
# From MPEC 2025-ST8
C/2025 F2 (SWAN),h,05/01.1587/2025,90.3657,329.8367,153.8349,1.000136,0.333518,2000,11.2,4.0
# From MPEC 2025-S35
C/2025 J1 (Borisov),e,95.4448,273.9763,166.6191,1160,0.0000250,0.99691225,0.0000,06/11.8104/2026,2000,g  9.1,4.0
# From MPEC 2025-ST8
C/2025 K1 (ATLAS),h,10/08.4395/2025,147.8644,97.5572,271.0256,1.000264,0.334197,2000,12.2,4.0
# From MPC186633
C/2025 K2 (PANSTARRS),e,113.9792,113.8288,232.4645,25.34280,0.0077254,0.88700258,359.8044,09/30.0/2025,2000,g 13.7,4.0
# From MPEC 2025-ST8
C/2025 K3 (PANSTARRS),h,12/14.1686/2028,104.9345,350.6288,188.5869,1.001454,3.470706,2000,6.4,4.0
# From MPEC 2025-R69
C/2025 K4 (Siverd),e,38.5421,297.0847,326.9254,43.20432,0.0034707,0.94139227,0.2213,09/30.0/2025,2000,g 14.1,4.0
# From MPEC 2025-R69
C/2025 L1 (ATLAS),h,01/12.7440/2026,114.1373,208.1086,341.2588,1.001379,1.679481,2000,11.4,4.0
# From MPEC 2025-ST8
C/2025 L2 (MAPS),e,86.5832,134.9852,232.6428,503.6890,0.0000872,0.99437421,0.0000,12/20.6628/2025,2000,g 11.7,4.0
# From MPEC 2025-S35
C/2025 M1 (PANSTARRS),e,64.8985,66.9586,230.4174,5516,0.0000024,0.99803678,0.0000,08/03.1032/2029,2000,g  2.9,4.0
# From MPEC 2025-ST8
